,Crew,Borough,Website,Location,latitude,longitude,api_status,formatted_address,result_type
0,Boogie Down Bronx Runners,Bronx,https://www.instagram.com/boogiedownbronxrunners/,Pelham Cornerstone Community Center - 785 Pelham Parkway North,40.8581815,-73.8641542,OK,"785 Pelham Pkwy N, Bronx, NY 10467, USA",establishment
1,Bronx Burners,Bronx,https://www.instagram.com/bronxburnersrc/,"The Armory, 216 Fort Washington Ave, New York, NY 10032",40.8424312,-73.9420153,OK,"216 Fort Washington Ave, New York, NY 10032, USA",street_address
2,Bronx Femme Run,Bronx,https://www.instagram.com/bronxfemmerun/,"Joseph Yancey Track, East 161st St. &, Macombs Dam Bridge, The Bronx, NY 10451",40.8279782,-73.9289895,OK,"East 161st St. &, Macombs Dam Bridge, Bronx, NY 10451, USA",establishment
3,Bronx Nomads,Bronx,https://www.instagram.com/bronxnomads/,"Williamsbridge Oval Park, 2335 Resevoir Oval E, Bronx, NY",40.8776269,-73.8763876,OK,"Holt Place and, Reservoir Oval E, Bronx, NY 10467, USA",establishment
4,Bronx Nomads,Bronx,https://www.instagram.com/bronxnomads/,"Williamsbridge Oval Track, 2335 Resevoir Oval E, Bronx, NY",40.8760936,-73.8780948,OK,"2335 Reservoir Oval E, Bronx, NY 10467, USA",street_address
5,Bronx Rockets,Bronx,https://www.instagram.com/bronx_rockets/,Mullaly Park 165th. Str. btw. Jerome & River Ave,40.8327854,-73.9243201,OK,"Rev. T. Wendell Foster Park, 1055 Jerome Ave, Bronx, NY 10452, USA",establishment
6,Bronx Sole,Bronx,https://www.instagram.com/bronxsole/,"Franz Sigel Park, E. 153rd Street & Grand Concourse",40.823285,-73.92554319999999,OK,"Franz Sigel Park, Walton Ave & Gerard Ave., Grand Concourse bet. E. 151 St., E. 153 St. and, E 158th St, Bronx, NY 10451, USA",establishment
8,BX Endurance Runners,Bronx,https://www.instagram.com/bxendurancerunners/,"Joseph Yancey Track, East 161st St. &, Macombs Dam Bridge, The Bronx, NY 10451",40.8279782,-73.9289895,OK,"East 161st St. &, Macombs Dam Bridge, Bronx, NY 10451, USA",establishment
9,BX Endurance Runners,Bronx,https://www.instagram.com/bxendurancerunners/,"Joyce Kilmer Park, 161st St btw Walton Ave & Grand Concourse",40.8286949,-73.9224792,OK,"Joyce Kilmer Park, 955 Walton Ave, Bronx, NY 10452, USA",establishment
10,Great Hill Track Club,Bronx,https://www.instagram.com/greathilltc/,Van Cortland Park - 242nd Street & Broadway (East/Park side of Street),40.8899894,-73.8980578,OK,"Van Cortlandt Park - 242 St, Bronx, NY 10471, USA",establishment
11,Mile Stylers,Bronx,https://www.instagram.com/milestylers/,"The Point Community Development Corporation, 940 Garrison Ave, The Bronx, NY 10474",40.8182557,-73.8901861,OK,"940 Garrison Ave, Bronx, NY 10474, USA",establishment
12,Startline Runners,Bronx,https://www.eventbrite.com/o/startline-runners-31156520587,Central Park - 111 Central Park North,40.7825547,-73.9655834,OK,"Central Park, New York, NY, USA",establishment
13,Startline Runners,Bronx,https://www.eventbrite.com/o/startline-runners-31156520587,Van Cortland Park - Tortoise and Hare Statue,40.8939928,-73.89633560000001,OK,"Tortoise & Hare Statue, 6087C Broadway, Bronx, NY 10471, USA",establishment
14,The Leftovers Run Club,Bronx,https://www.instagram.com/theleftoversrun/,"Joseph Yancey Track, East 161st St. &, Macombs Dam Bridge, The Bronx, NY 10451",40.8279782,-73.9289895,OK,"East 161st St. &, Macombs Dam Bridge, Bronx, NY 10451, USA",establishment
15,Van Cortlandt Track Club,Bronx,https://www.instagram.com/vancortlandttc/,Van Cortland Park - West 242nd Street and Broadway (Handball Courts),40.8899894,-73.8980578,OK,"Van Cortlandt Park - 242 St, Bronx, NY 10471, USA",establishment
16,Van Cortlandt Track Club,Bronx,https://www.instagram.com/vancortlandttc/,Van Cortland Park - Near Tortoise & Hare Statue,40.8971354,-73.8860942,OK,"Van Cortlandt Park, Broadway and Van, Cortlandt Park South, Bronx, NY 10471, USA",establishment
18,Achilles International NYC,Brooklyn,https://www.instagram.com/achillesnyc/?hl=en,Prospect Park - Garfield Street Entrance,40.6700355,-73.9723229,OK,"Garfield Pl & Prospect Park W, Brooklyn, NY 11215, USA",intersection
19,Adidas Runners,Brooklyn,https://www.instagram.com/adidasrunners/,Prospect Park (Grand Army Plaza),40.6740248,-73.9701254,OK,"Grand Army Plaza, Flatbush Ave, Brooklyn, NY 11238, USA",establishment
20,Bed-Stuy Run Club,Brooklyn,https://www.instagram.com/__m.schmidt/,Saratoga & Halsey,40.6855149,-73.9177083,OK,"Halsey St & Saratoga Ave, Brooklyn, NY 11233, USA",intersection
21,Bedstuy Flyers,Brooklyn,https://www.instagram.com/bedstuyflyers/,"Boys & Girls High School Track, 1700 Fulton St, Brooklyn, NY 11213",40.6788731,-73.9315586,OK,"1700 Fulton St, Brooklyn, NY 11213, USA",establishment
22,Bedstuy Flyers,Brooklyn,https://www.instagram.com/bedstuyflyers/,"Salsa/Bravi Ragazzi, 570 Putnam Ave at Marcus Garvey Blvd",40.6851952,-73.9388704,OK,"570 Putnam Ave, Brooklyn, NY 11221, USA",bar
23,BK Heights Run Club,Brooklyn,https://www.instagram.com/bkhrunclub/?hl=en,Under BK Bridge,40.7033164,-73.9881451,OK,"Dumbo, Brooklyn, NY 11201, USA",neighborhood
24,BK Heights Run Club,Brooklyn,https://www.instagram.com/bkhrunclub/?hl=en,Borough Hall,40.6928442,-73.990303,OK,"209 Joralemon St, Brooklyn, NY 11201, USA",city_hall
34,BK Heights Run Club,Brooklyn,https://www.instagram.com/bkhrunclub/?hl=en,Pier 5,25.7780627,-80.1865586,OK,"401 Biscayne Blvd Unit M100, Miami, FL 33132, USA",bar
35,BK Run Project,Brooklyn,https://www.bkrunproject.com/,Prospect Park - Grand Army Plaza entrance,40.6740248,-73.9701254,OK,"Grand Army Plaza, Flatbush Ave, Brooklyn, NY 11238, USA",establishment
37,BK Run Project,Brooklyn,https://www.bkrunproject.com/,Prospect Park,40.6602037,-73.9689558,OK,"Prospect Park, Brooklyn, NY, USA",establishment
38,Black Men Run,Brooklyn,https://www.instagram.com/blackmenrunnyc/,Prospect Park - Grand Army Plaza entrance,40.6740248,-73.9701254,OK,"Grand Army Plaza, Flatbush Ave, Brooklyn, NY 11238, USA",establishment
41,Brooklyn Rogues,Brooklyn,https://www.instagram.com/brooklynrogues/,Prospect Park (Grand Army Plaza),40.6740248,-73.9701254,OK,"Grand Army Plaza, Flatbush Ave, Brooklyn, NY 11238, USA",establishment
43,Brooklyn Rogues,Brooklyn,https://www.instagram.com/brooklynrogues/,Brooklyn Academy of Music,40.6864737,-73.9776469,OK,"30 Lafayette Ave, Brooklyn, NY 11217, USA",establishment
44,Brooklyn Track Club,Brooklyn,https://www.brooklyntrackclub.com/training-sessions.html,McCarren Park Track,40.7200368,-73.95172509999999,OK,"769 Lorimer St, Brooklyn, NY 11222, USA",establishment
45,Brooklyn Track Club,Brooklyn,https://www.brooklyntrackclub.com/training-sessions.html,East River Track,40.7133434,-73.9757477,OK,"East River Park, East River Promenade, New York, NY 10002, USA",establishment
48,Brooklyn Track Club,Brooklyn,https://www.brooklyntrackclub.com/training-sessions.html,Central Park,40.7825547,-73.9655834,OK,"Central Park, New York, NY, USA",establishment
49,Brooklyn Track Club,Brooklyn,https://www.brooklyntrackclub.com/training-sessions.html,Prospect Park,40.6602037,-73.9689558,OK,"Prospect Park, Brooklyn, NY, USA",establishment
50,Brooklyn Tri Club,Brooklyn,https://brooklyntri.org/event/run-training-with-coach-john/2022-07-27,Prospect Park - along Center Drive,40.6606114,-73.9700868,OK,"Center Dr, Brooklyn, NY, USA",route
51,Bushwick Runners,Brooklyn,https://www.instagram.com/bushwickrunners/,"Maria Hernandez Park, Brooklyn, NY",40.70318750000001,-73.9238125,OK,"P33G+7F Maria Hernandez Park, Brooklyn, NY 11237, USA",establishment
52,Crown Heights Running Club,Brooklyn,https://www.instagram.com/crownheightsrunningclub/,Prospect Park - Parkside Ave & Ocean Ave entrance,40.6602037,-73.9689558,OK,"Prospect Park, Brooklyn, NY, USA",establishment
53,Crown Heights Running Club,Brooklyn,https://www.instagram.com/crownheightsrunningclub/,Prospect Park - Flatbush Ave & Empire Ave entrance,40.6602037,-73.9689558,OK,"Prospect Park, Brooklyn, NY, USA",establishment
54,Crown Heights Running Club,Brooklyn,https://www.instagram.com/crownheightsrunningclub/,Prospect Park - Grand Army Plaza entrance,40.6740248,-73.9701254,OK,"Grand Army Plaza, Flatbush Ave, Brooklyn, NY 11238, USA",establishment
55,Crown Heights Running Club,Brooklyn,https://www.instagram.com/crownheightsrunningclub/,Prospect Park - Eastern Parkway & Franklin Ave,40.6608764,-73.9621167,OK,"Prospect Pk, Brooklyn, NY 11225, USA",establishment
57,Dashing Whippets,Brooklyn,https://www.instagram.com/dashingwhippets/,"Gowanus - Finneback Brewery, 545 President St, Brooklyn, NY 11215",40.6774565,-73.9847935,OK,"545 President St, Brooklyn, NY 11215, USA",premise
58,Dashing Whippets,Brooklyn,https://www.instagram.com/dashingwhippets/,Prospect Park - Grand Army Plaza entrance,40.6740248,-73.9701254,OK,"Grand Army Plaza, Flatbush Ave, Brooklyn, NY 11238, USA",establishment
60,DeFine New York Run Club,Brooklyn,https://www.instagram.com/definenewyorkrunclub/?hl=en,Dick & Janes 266 Adelphi Street,40.689854,-73.971357,OK,"266 Adelphi St, Brooklyn, NY 11205, USA",bar
61,Democratic Socialists of America,Brooklyn,https://socialists.nyc/running-club/,"North Entrance to Prospect Park, across the street from the Arch - 20 Grand Army Plz, Brooklyn, NY 11238, Brooklyn, NY 11238 US",40.6729962,-73.96991299999999,OK,"20 Grand Army Plz, Brooklyn, NY 11238, USA",premise
62,Endorphins Running Club,Brooklyn,https://www.instagram.com/endorphinsrunning/?hl=en,"Prospect Park, Grand Army Plaza",40.6740248,-73.9701254,OK,"Grand Army Plaza, Flatbush Ave, Brooklyn, NY 11238, USA",establishment
63,Fleet Feet Running Club Brooklyn,Brooklyn,https://www.instagram.com/fleetfeetbrooklyn/,"151 7th Avenue, Brooklyn, NY 11215",40.672504,-73.9766183,OK,"151 7th Ave, Brooklyn, NY 11215, USA",premise
64,Fort Greene Runners,Brooklyn,https://www.instagram.com/fortgreenerunners/,DeKalb & Cumberland,41.9295355,-88.74991279999999,OK,"DeKalb, IL, USA",locality
65,Fort Greene Runners,Brooklyn,https://www.instagram.com/fortgreenerunners/,Fulton & Hanson,40.6857686,-73.9730604,OK,"Hanson Pl & Fulton St, Brooklyn, NY 11217, USA",intersection
66,Front Runners New York,Brooklyn,https://frny.org/activities,"Prospect Park, 3rd St. and Prospect Park West, entrance in front of panther statues",40.6602037,-73.9689558,OK,"Prospect Park, Brooklyn, NY, USA",establishment
67,Front Runners New York,Brooklyn,https://frny.org/activities,Brooklyn Bridge Park Pier 6,40.6927004,-74.00155099999999,OK,"Brooklyn Bridge Park Pier 6, Governors Island - Atlantic Avenue/Brooklyn Bridge Park Pier 6, Brooklyn, NY 11201, USA",establishment
69,Girls Run NYC,Brooklyn,https://www.instagram.com/girlsrunnyc/,"Brooklyn Running Co, 222 Grand Street",40.713615,-73.959733,OK,"222 Grand St, Brooklyn, NY 11211, USA",establishment
70,Goldfinger Track Club,Brooklyn,https://www.instagram.com/gftcbklyn/,"Stuy Wash 'N Dry, 954 Putnam Ave, Brooklyn, NY 11221",40.6869296,-73.9239169,OK,"954 Putnam Ave, Brooklyn, NY 11221, USA",establishment
71,Great Hill Track Club,Brooklyn,https://www.instagram.com/greathilltc/,Prospect Park - Flatbush Ave & Eastern Parkway,40.6602037,-73.9689558,OK,"Prospect Park, Brooklyn, NY, USA",establishment
73,Greenpoint Runners,Brooklyn,https://www.instagram.com/greenpointrunners/?hl=en,"Greenpoint - Bandit, 37 Noble Street",40.7283678,-73.95935829999999,OK,"37 Noble St, Brooklyn, NY 11222, USA",establishment
74,Kings County Fitness Club,Brooklyn,https://www.instagram.com/kingscountyfitnessclub/,Fort Greene Park,40.6914322,-73.975246,OK,"Fort Greene Park, Dekalb Avenue &, S Portland Ave, Brooklyn, NY 11205, USA",establishment
75,Lean Strong Fast,Brooklyn,https://www.instagram.com/lean.strong.fast/?hl=en,Prospect Park - Grand Army Plaza entrance,40.6740248,-73.9701254,OK,"Grand Army Plaza, Flatbush Ave, Brooklyn, NY 11238, USA",establishment
76,MTHD by Oscar,Brooklyn,https://www.instagram.com/mthdbyoscar/,"450 Warren St Brooklyn, NY 11217",40.6834718,-73.9868838,OK,"450 Warren St, Brooklyn, NY 11217, USA",premise
77,New York Flyers,Brooklyn,https://www.nyflyers.org/,Prospect Park - meet at the top of the circle just inside the north entrance of the park,40.6736427,-73.9695503,OK,"Brooklyn, NY, USA",route
78,Nice Jewish Runners,Brooklyn,https://www.instagram.com/nicejewishrunners/,Prospect Park/Grand Army Plaza,40.6740248,-73.9701254,OK,"Grand Army Plaza, Flatbush Ave, Brooklyn, NY 11238, USA",establishment
79,No Bad Days Run Club,Brooklyn,https://www.instagram.com/nbd_rc,"Other Half, 34 River Street.",32.081661,-81.0914446,OK,"34 River St, Savannah, GA 31401, USA",street_address
80,North Brooklyn Runners,Brooklyn,https://northbrooklynrunners.org/,McCarren Park,40.7210405,-73.95134879999999,OK,"McCarren Park, 776 Lorimer St, Brooklyn, NY 11222, USA",establishment
84,North Brooklyn Runners,Brooklyn,https://northbrooklynrunners.org/,Prospect Park - Grand Army Plaza Entrance,40.6740248,-73.9701254,OK,"Grand Army Plaza, Flatbush Ave, Brooklyn, NY 11238, USA",establishment
93,North Brooklyn Runners,Brooklyn,https://northbrooklynrunners.org/,"South Williamsburg - 677 Kent Avenue, Brooklyn, NY",40.7007889,-73.962549,OK,"677 Kent Ave, Brooklyn, NY 11249, USA",premise
96,November Project,Brooklyn,https://november-project.com/brooklyn-ny/,Fort Greene Park,40.6914322,-73.975246,OK,"Fort Greene Park, Dekalb Avenue &, S Portland Ave, Brooklyn, NY 11205, USA",establishment
97,NYC Sprint Collective,Brooklyn,https://www.instagram.com/nycsprintcollective/,McCarren Park,40.7210405,-73.95134879999999,OK,"McCarren Park, 776 Lorimer St, Brooklyn, NY 11222, USA",establishment
99,Off the Hook Track Club,Brooklyn,https://www.instagram.com/offthehooktc/,Red Hook - Red Hook Track,40.6730613,-74.0087203,OK,"155 Bay St, Brooklyn, NY 11231, USA",establishment
100,On Williamsburg Run Club,Brooklyn,https://www.eventbrite.com/e/on-williamsburg-tuesday-community-group-runs-tickets-796928252857?aff=oddtdtcreator,On Williamsburg,40.7081156,-73.9570696,OK,"Williamsburg, Brooklyn, NY, USA",neighborhood
101,Positive Mental Energy,Brooklyn,https://www.instagram.com/positivementalenergy.nyc/,Bushwick - Maria Hernandez Park,40.70318750000001,-73.9238125,OK,"P33G+7F Maria Hernandez Park, Brooklyn, NY 11237, USA",establishment
103,Prospect Park Track Club,Brooklyn,https://www.instagram.com/prospectparktc/,Prospect Park - Entrance at Prospect Park West & Union St (NOT under the arch),40.6602037,-73.9689558,OK,"Prospect Park, Brooklyn, NY, USA",establishment
104,Prospect Park Track Club,Brooklyn,https://www.instagram.com/prospectparktc/,Prospect Park - Parkside Ave & Ocean Ave entrance,40.6602037,-73.9689558,OK,"Prospect Park, Brooklyn, NY, USA",establishment
105,Prospect Park Track Club,Brooklyn,https://www.instagram.com/prospectparktc/,Prospect Park (Bartel-Pritchard Square entrance),40.6609484,-73.9798989,OK,"Bartel-Pritchard Square, Prospect Park Southwest, Brooklyn, NY 11215, USA",establishment
107,Queers Run Brooklyn,Brooklyn,https://www.instagram.com/queersrunbrooklyn/,Prospect Park Loop Starting at Brooklyn Central Library Steps,40.67251110000001,-73.9682,OK,"10 Grand Army Plz, Brooklyn, NY 11238, USA",establishment
112,Rabbit Movers Running Club,Brooklyn,https://www.instagram.com/rabbit.movers.running.club/?hl=en,Columbus Circle,40.767848,-73.9815219,OK,"Columbus Cir, New York, NY, USA",route
113,Rage and Release,Brooklyn,https://www.instagram.com/rageandrelease/,"Prospect Heights - 845 Dean St, Brooklyn",40.6790198,-73.961654,OK,"845 Dean St, Brooklyn, NY 11238, USA",street_address
114,Resident Runners,Brooklyn,https://www.instagram.com/residentrunners/,"Fulton Hall, 250 Ashland Place, Brooklyn, NY 11217",40.6876846,-73.9787132,OK,"250 Ashland Pl, Brooklyn, NY 11217, USA",bar
115,Ridge Runners NYC,Brooklyn,https://www.instagram.com/ridgerunnersnyc/ OR https://www.facebook.com/groups/ridgerunnersnyc,"Bay Ridge - 78th St & 3rd Ave, Brooklyn, NY 11209",40.6293019,-74.0286842,OK,"78th St & 3rd Ave, Brooklyn, NY 11209, USA",intersection
116,Ridge Runners NYC,Brooklyn,https://www.instagram.com/ridgerunnersnyc/ OR https://www.facebook.com/groups/ridgerunnersnyc,"Bay Ridge - 69th St Pier, Brooklyn, NY 11209",40.6394128,-74.0379857,OK,"American Veterans Memorial Pier, Bay Ridge Ave, Brooklyn, NY 11209, USA",establishment
117,Ridge Runners NYC,Brooklyn,https://www.instagram.com/ridgerunnersnyc/ OR https://www.facebook.com/groups/ridgerunnersnyc,"Bay Ridge - Fort Hamilton High School, 8301 Shore Rd, Brooklyn, NY 11209",40.6269932,-74.0401285,OK,"8301 Shore Rd, Brooklyn, NY 11209, USA",establishment
118,Ridge Runners NYC,Brooklyn,https://www.instagram.com/ridgerunnersnyc/ OR https://www.facebook.com/groups/ridgerunnersnyc,"Bay Ridge - Shore Rd & 79th St, Brooklyn, NY 11209",40.6313154,-74.0388083,OK,"Shore Rd & 79th St, Brooklyn, NY 11209, USA",intersection
119,Ridge Runners NYC,Brooklyn,https://www.instagram.com/ridgerunnersnyc/ OR https://www.facebook.com/groups/ridgerunnersnyc,"Bay Ridge - 4th Ave & 86th St, Brooklyn, NY 11209",40.6228093,-74.0283419,OK,"4th Ave & 86th St, Brooklyn, NY 11209, USA",intersection
121,Running Souls Run Club,Brooklyn,https://www.instagram.com/runningsoulsrun/,Prospect Park (Bartel-Pritchard Square entrance),40.6609484,-73.9798989,OK,"Bartel-Pritchard Square, Prospect Park Southwest, Brooklyn, NY 11215, USA",establishment
124,South Brooklyn Running Club,Brooklyn,https://www.instagram.com/southbrooklynrc/,Carroll Park (corner of Court and President),40.6810509,-73.9954352,OK,"Carroll Park, President St, Brooklyn, NY 11231, USA",establishment
125,South Brooklyn Running Club,Brooklyn,https://www.instagram.com/southbrooklynrc/,Red Hook - Field at Bay & Henry,40.6738304,-74.00576439999999,OK,"Red Hook Ball Fields 7, 98 Lorraine St, Brooklyn, NY 11231, USA",establishment
130,Spartan Sundays Run Club,Brooklyn,https://www.instagram.com/spartansundaysrunclub/,"Prospect Lefferts Gardens - Wingate Track - 600 Kingston Ave, Brooklyn, NY",40.6593652,-73.9431462,OK,"600 Kingston Ave, Brooklyn, NY 11203, USA",premise
132,Spartan Sundays Run Club,Brooklyn,https://www.instagram.com/spartansundaysrunclub/,JAGPT 2133 Ralph Ave,40.6253745,-73.9163485,OK,"2133 Ralph Ave, Brooklyn, NY 11234, USA",street_address
133,Team We Run Kings (Team WRK),Brooklyn,https://werunkings.com/,"The Brooklyn Circus, 150 Nevins Street",40.68403199999999,-73.9841811,OK,"150 Nevins St, Brooklyn, NY 11217, USA",clothing_store
134,Ukrainian Running Club,Brooklyn,https://www.ukrainianrunningclub.com/,Coney Island - Crossroad of Stilwell Ave and Surf Ave (outside of Coney Island subway station),40.5744829,-73.98140099999999,OK,"3030 Stillwell Ave, Brooklyn, NY 11224, USA",establishment
135,Williamsburg Track Club,Brooklyn,https://www.instagram.com/wbtc_nyc/,McCarren Park Track,40.7200368,-73.95172509999999,OK,"769 Lorimer St, Brooklyn, NY 11222, USA",establishment
137,Women Make Moves,Brooklyn,https://www.instagram.com/womenmakemoves/,"Crown Heights - Urban Asanas, 843 Sterling Pl, Brooklyn, NY 11216",40.6726717,-73.95056629999999,OK,"843 Sterling Pl, Brooklyn, NY 11216, USA",establishment
138,Achilles International NYC,Manhattan,https://www.instagram.com/achillesnyc/?hl=en,"Central Park - Engineer's Gate, 2 E 90th St, New York, NY 10128",40.784066,-73.9586941,OK,"2 E 90th St, New York, NY 10128, USA",establishment
140,Adidas Runners,Manhattan,https://www.instagram.com/adidasrunners/,"Columbus Circle - NY Running Co, 10 Columbus Cir, New York, NY 10019",40.7685526,-73.9831866,OK,"10 Columbus Cir, New York, NY 10019, USA",premise
142,Almost Friday Run Club,Manhattan,https://www.instagram.com/almostfridayrunclub/?hl=en,Morton St. & WSH,40.7309548,-74.0067219,OK,"Morton St, New York, NY 10014, USA",route
143,Beer Run Harlem Running Club (Rosie’s Run Club),Manhattan,https://www.instagram.com/beerrunharlem/,"Beer Run Harlem, 3604 Broadway 2nd FL, New York, NY 10031",40.8284521,-73.9485715,OK,"3604 Broadway 2nd FL, New York, NY 10031, USA",bar
144,Blockhouse Run Club,Manhattan,https://link.heylo.co/7co7 ,Central Park - USS Maine Monument,40.7683893,-73.98084159999999,OK,"W 59th St, New York, NY 10019, USA",establishment
145,Bridge Runners,Manhattan,https://www.instagram.com/bridgerunners/?hl=en,176 Delancey Street,40.71790319999999,-73.9849692,OK,"176 Delancey St, New York, NY 10002, USA",premise
146,Bunji Running,Manhattan,https://www.bunjirunning.com/,Central Park - The Mall & Main Loop & 66th Street,40.7723522,-73.9715901,OK,"The Mall, New York, NY, USA",route
147,Bunji Running,Manhattan,https://www.bunjirunning.com/,Central Park - Bottom of Cat Hill (Boat House carpark),40.7725174,-73.96663869999999,OK,"Cat Hill ASCN 1ZZ, St Helena, Ascension and Tristan da Cunha",premise
148,Central Park Running Club,Manhattan,https://www.instagram.com/centralparkrunning/,Central Park - Boat House,40.7752428,-73.9688067,OK,"Central Park Boat House, 72 E 72nd St, New York, NY 10021, USA",establishment
150,Central Park Track Club,Manhattan,https://www.instagram.com/centralparktc/,Central Park,40.7825547,-73.9655834,OK,"Central Park, New York, NY, USA",establishment
153,Dashing Whippets,Manhattan,https://www.instagram.com/dashingwhippets/,Central Park - 72nd by Bethesda Fountain,40.7825547,-73.9655834,OK,"Central Park, New York, NY, USA",establishment
155,Dashing Whippets,Manhattan,https://www.instagram.com/dashingwhippets/,West Village Amity Hall,40.7297225,-73.998874,OK,"80 W 3rd St, New York, NY 10012, USA",bar
157,Dashing Whippets,Manhattan,https://www.instagram.com/dashingwhippets/,Central Park,40.7825547,-73.9655834,OK,"Central Park, New York, NY, USA",establishment
158,Dashing Whippets,Manhattan,https://www.instagram.com/dashingwhippets/,"Riverbank State Park, 679 Riverside Dr · New York, NY",40.82642360000001,-73.9559555,OK,"Riverbank State Park, 679 Riverside Dr, New York, NY 10031, USA",establishment
159,Dashing Whippets,Manhattan,https://www.instagram.com/dashingwhippets/,East River Track,40.7133434,-73.9757477,OK,"East River Park, East River Promenade, New York, NY 10002, USA",establishment
162,Dashing Whippets,Manhattan,https://www.instagram.com/dashingwhippets/,"Time Warner Center, 10 Columbus Cir · New York, NY",40.7685068,-73.9831349,OK,"10 Columbus Cir, New York, NY 10019, USA",establishment
163,Distance Project NYC,Manhattan,https://www.instagram.com/distanceprojectnyc/?hl=en,"AS IS NYC, 734 10th Ave, New York, NY 10019",40.7647168,-73.9915618,OK,"734 10th Ave, New York, NY 10019, USA",bar
164,Distance Project NYC,Manhattan,https://www.instagram.com/distanceprojectnyc/?hl=en,"Central Park - Engineer's Gate, 2 E 90th St, New York, NY 10128",40.784066,-73.9586941,OK,"2 E 90th St, New York, NY 10128, USA",establishment
165,Dyckman Run Club,Manhattan,https://www.instagram.com/dyckmanrunclub/,Riverbank Track,40.8255182,-73.9564335,OK,"679 Riverside Dr, New York, NY 10031, USA",establishment
166,Dyckman Run Club,Manhattan,https://www.instagram.com/dyckmanrunclub/,Tryon Public House,40.8650136,-73.9278636,OK,"4740 Broadway, New York, NY 10040, USA",bar
167,Empire Tri Club,Manhattan,https://empiretriclub.com/calendar-of-events/,Columbus Circle,40.767848,-73.9815219,OK,"Columbus Cir, New York, NY, USA",route
168,Endorphins Running Club,Manhattan,https://www.instagram.com/endorphinsrunning/?hl=en,Washington Square Park,40.7308838,-73.997332,OK,"Washington Square Park, Washington Square, New York, NY 10012, USA",establishment
169,Endorphins Running Club,Manhattan,https://www.instagram.com/endorphinsrunning/?hl=en,"Central Park, William Tecumseh Sherman Monument",40.7648084,-73.97306619999999,OK,"764 Doris C Freedman Pl, New York, NY 10019, USA",establishment
170,Fleet Feet Running Club Columbus Circle,Manhattan,https://www.instagram.com/nyrunningco/,"NY Running Co, 10 Columbus Circle",40.7685526,-73.9831866,OK,"10 Columbus Cir, New York, NY 10019, USA",premise
172,Fleet Feet Running Club Upper West Side,Manhattan,https://www.instagram.com/fleetfeetupperwestside/,"140 W 72nd St, New York, NY 10023",40.777825,-73.9804043,OK,"140 W 72nd St, New York, NY 10023, USA",premise
173,Front Runners New York,Manhattan,https://frny.org/activities,Central Park - across from Daniel Webster Statue,40.7747558,-73.9742918,OK,"West Dr. &, Terrace Dr, New York, NY 10024, USA",establishment
175,Great Hill Track Club,Manhattan,https://www.instagram.com/greathilltc/,Central Park - 72nd Street Transverse and West Drive,40.7825547,-73.9655834,OK,"Central Park, New York, NY, USA",establishment
176,Great Hill Track Club,Manhattan,https://www.instagram.com/greathilltc/,"JackRabbit, 140 West 72nd Street",40.777825,-73.9804043,OK,"140 W 72nd St, New York, NY 10023, USA",premise
179,Hamilton Heights Running Group,Manhattan,https://www.instagram.com/hhrungroup/,Hamilton Heights - NW Corner of 150th & Amsterdam,40.8281266,-73.94405259999999,OK,"457W W 150th St, New York, NY 10031, USA",establishment
180,Harlem Run,Manhattan,https://www.instagram.com/harlemrun/,Marcus Garvey Park Amphitheater,40.8044257,-73.9437629,OK,"Marcus Garvey Park, 6316 Mt Morris Park W, New York, NY 10027, USA",establishment
181,Harlem Run,Manhattan,https://www.instagram.com/harlemrun/,"Harlem United, 306 Lenox Avenue, 3rd Floor, New York, NY",40.807913,-73.9449228,OK,"306 Malcolm X Blvd, New York, NY 10027, USA",establishment
182,Henwood Hounds Racing Team,Manhattan,https://www.johnhenwood.com/hounds/,Central Park,40.7825547,-73.9655834,OK,"Central Park, New York, NY, USA",establishment
184,Manhattan Track Club,Manhattan,https://www.instagram.com/manhattantrackclub/,East River Track,40.7133434,-73.9757477,OK,"East River Park, East River Promenade, New York, NY 10002, USA",establishment
185,Manhattan Track Club,Manhattan,https://www.instagram.com/manhattantrackclub/,Central Park under 77st Bridle Path Bridge,40.7797706,-73.97461659999999,OK,"Central Park, New York, NY, USA",street_address
186,Manhattan Track Club,Manhattan,https://www.instagram.com/manhattantrackclub/,Loeb Boathouse,40.7752246,-73.9687604,OK,"EAST 72ND ST +, Center Dr, New York, NY 10021, USA",bar
187,Midnight Runners,Manhattan,https://www.midnightrunners.com/mr-cities/new-york,Pier 45 on Christopher Street,40.7331485,-74.01250739999999,OK,"Pier 45 at Hudson River Park, Hudson River Greenway, New York, NY 10014, USA",establishment
188,Mile HIgh Run Club,Manhattan,https://www.instagram.com/team_mhrc/,Noho - Mile High Run Club,40.7273827,-73.9924454,OK,"28 E 4th St, New York, NY 10003, USA",establishment
189,New York Flyers,Manhattan,https://www.nyflyers.org/,Central Park - West 72nd Street entrance,40.7825547,-73.9655834,OK,"Central Park, New York, NY, USA",establishment
191,New York Flyers,Manhattan,https://www.nyflyers.org/,Columbus Circle - Merchant's Gate under Maine Monument (gold statue),40.7682489,-73.98101079999999,OK,"West Side at, Central Park S, New York, NY 10019, USA",establishment
192,New York Flyers,Manhattan,https://www.nyflyers.org/,"Central Park - 72d Street & East Drive, NW corner of interesection near lamp post",40.7825547,-73.9655834,OK,"Central Park, New York, NY, USA",establishment
193,New York Harriers,Manhattan,https://www.instagram.com/newyorkharriers/,"Central Park - Engineer's Gate, 2 E 90th St, New York, NY 10128",40.784066,-73.9586941,OK,"2 E 90th St, New York, NY 10128, USA",establishment
194,New York Harriers,Manhattan,https://www.instagram.com/newyorkharriers/,East River Track,40.7133434,-73.9757477,OK,"East River Park, East River Promenade, New York, NY 10002, USA",establishment
196,NewBee Running Club,Manhattan,https://www.instagram.com/newbeerunningclub/,Central Park,40.7825547,-73.9655834,OK,"Central Park, New York, NY, USA",establishment
197,Nice Jewish Runners,Manhattan,https://www.instagram.com/nicejewishrunners/,"Finish Line Physical Therapy, West 23rd Street",40.7433217,-73.9933307,OK,"119 W 23rd St 3rd floor, New York, NY 10011, USA",establishment
198,Nice Jewish Runners,Manhattan,https://www.instagram.com/nicejewishrunners/,"Central Park - Fred Lebow Statue, E 90st & 5th Ave",40.78408599999999,-73.959178,OK,"East Dr, New York, NY 10128, USA",establishment
199,Nike Run Club,Manhattan,https://www.nike.com/experiences/series/10903,Nike Flatiron,40.7399068,-73.99105709999999,OK,"156 5th Ave, New York, NY 10010, USA",clothing_store
200,Nike Run Club,Manhattan,https://www.nike.com/experiences/series/10903,Nike Upper East Side,40.7661828,-73.9627947,OK,"1131 3rd Ave, New York, NY 10065, USA",clothing_store
201,No More Lonely Runs,Manhattan,https://nomorelonelyruns.com/,"West Side Highway - Hudson River Park, 61 Chelsea Piers, New York, NY 10011",40.74735500000001,-74.0083691,OK,"111C 11th Ave, New York, NY 10011, USA",establishment
202,Not So Serious Running Group,Manhattan,https://www.meetup.com/Not-So-Serious-Running-Group-NYC/,Central Park - Bethesda Terrace,40.7739528,-73.97096570000001,OK,"New York, NY 10024, USA",establishment
203,Not So Serious Running Group,Manhattan,https://www.meetup.com/Not-So-Serious-Running-Group-NYC/,Central Park - Central Park South and Center Drive,40.7825547,-73.9655834,OK,"Central Park, New York, NY, USA",establishment
205,November Project,Manhattan,https://www.instagram.com/novemberprojectnyc/,Central Park - Bethesday Terrace,40.7739528,-73.97096570000001,OK,"New York, NY 10024, USA",establishment
206,NYC Running Punks,Manhattan,https://www.instagram.com/runningpunksnyc/,Columbus Circle - Merchant's Gate under Maine Monument (gold statue),40.7682489,-73.98101079999999,OK,"West Side at, Central Park S, New York, NY 10019, USA",establishment
207,Old Man Run Club (OMRC),Manhattan,https://www.instagram.com/oldmanrunclub/?hl=en,East River Track,40.7133434,-73.9757477,OK,"East River Park, East River Promenade, New York, NY 10002, USA",establishment
208,On Running NYC,Manhattan,https://www.instagram.com/on_running/,"363A Lafayette St, New York, NY 10012",40.727013,-73.9935529,OK,"363A Lafayette St, New York, NY 10012, USA",street_address
209,Orchard Street Runners,Manhattan,http://orchardstreetrunners.com/Posts/tuesday-nightss/,27 Orchard Street,40.71548019999999,-73.9916961,OK,"27 Orchard St, New York, NY 10002, USA",street_address
210,Outsiderz Run Club,Manhattan,https://www.instagram.com/outsiderz_run_club/,Inwood - Entrance Inwood Hill Park on Isham St and Seaman Ave,40.8721829,-73.924776,OK,"Inwood Hill Park, Payson Ave. &, Seaman Ave, New York, NY 10034, USA",establishment
211,Pacesetters Run Club,Manhattan,https://www.instagram.com/fleetfeetnyc/,"Fleet Feet Union Square - 42 W 14th St, New York, NY 10011",40.7367292,-73.9956192,OK,"42 W 14th St, New York, NY 10011, USA",clothing_store
212,Paragon Sports Run Club,Manhattan,https://www.paragonsports.com/pages/run-club,"Paragon (Union Square), 867 Broadway, New York, NY 10003",40.7377091,-73.9904174,OK,"867 Broadway, New York, NY 10003, USA",clothing_store
213,Pitch & Run,Manhattan,https://twitter.com/PitchandrunNYC,Chelsea Piers - Near Bluestone Lane Coffee,40.7473339,-74.0081797,OK,"Chelsea Piers, New York, NY 10011, USA",route
215,Prehab Run Club,Manhattan,https://www.instagram.com/prehabrunclub/,UES - 248 East 73rd Street,40.7694936,-73.95838479999999,OK,"248 E 73rd St, New York, NY 10021, USA",street_address
216,Resident Runners,Manhattan,https://www.instagram.com/residentrunners/,"Under Armour Brand House, 185 Greenwich Street",40.7110867,-74.0122437,OK,"185 Greenwich St Space Ll4302, New York, NY 10007, USA",clothing_store
217,Roosevelt Island Runners,Manhattan,https://www.instagram.com/rooseveltislandrunners/,"Roosevelt Island - Eleanor's Pier, W Rd, New York, NY 10044",40.7599036,-73.9532108,OK,"Eleanor's Pier, W Rd, New York, NY 10044, USA",establishment
218,Run For Chinatown,Manhattan,https://runforchinatown.org/about,69 Mulberry Street,40.7160423,-73.9994238,OK,"69 Mulberry St, New York, NY 10013, USA",street_address
219,Russian Running,Manhattan,https://www.instagram.com/russianrunningnyc/,Columbus Circle - Maine Monument (gold statue),40.7682489,-73.98101079999999,OK,"West Side at, Central Park S, New York, NY 10019, USA",establishment
220,Saturday Morning Run Crew,Manhattan,https://www.instagram.com/satmornruncrew/,"Harlem - TD Bank, 124th & Lenox",40.8101454,-73.9515141,OK,"300 W 125th St, New York, NY 10027, USA",atm
221,Social Striders Running Club,Manhattan,https://www.instagram.com/socialstridersrunningclub?igsh=MWx3OTMzdnU2ZnptcA%3D%3D&utm_source=qr,"Battery Park, North Cove Marina",40.7127749,-74.0166084,OK,"Vesey St, New York, NY 10281, USA",establishment
222,Social Striders Running Club,Manhattan,https://www.instagram.com/socialstridersrunningclub?igsh=MWx3OTMzdnU2ZnptcA%3D%3D&utm_source=qr,Bethesda Terrace,38.4598236,-90.30962369999999,OK,"2535 Oakmont Terrace Dr, St. Louis, MO 63129, USA",establishment
223,Social Striders Running Club,Manhattan,https://www.instagram.com/socialstridersrunningclub?igsh=MWx3OTMzdnU2ZnptcA%3D%3D&utm_source=qr,Central Park South & 6th Avenue (Cit Bike Station),40.7657249,-73.9762178,OK,"6th Ave & Central Park S, New York, NY 10019, USA",intersection
226,South Asian Run Club,Manhattan,southasianrunclub@gmail.com / https://www.instagram.com/southasianrunclub/,E69 St Flagpole by Fifth Ave,40.7744123,-73.9656103,OK,"5th Ave, New York, NY, USA",route
227,Streets 101,Manhattan,https://www.streets101.run/,"Custom Performance Physical Therapy - 295 Madison Ave #1026, New York, NY 10017",40.7517644,-73.97912939999999,OK,"295 Madison Ave #1026, New York, NY 10017, USA",establishment
228,The Most Informal Running Club Ever,Manhattan,https://www.instagram.com/tmircenyc/,East River Track,40.7133434,-73.9757477,OK,"East River Park, East River Promenade, New York, NY 10002, USA",establishment
229,The Most Informal Running Club Ever,Manhattan,https://www.instagram.com/tmircenyc/,Jack Rabbit Union Square,40.7365576,-73.9957093,OK,"Union Square, New York, NY 10003, USA",street_address
230,The Most Informal Running Club Ever,Manhattan,https://www.instagram.com/tmircenyc/,Union Square - Whole Foods,40.7346935,-73.9912519,OK,"4 Union Square E, New York, NY 10003, USA",establishment
235,UES Run Club,Manhattan,https://www.instagram.com/uesrunclub/,UES - 86th St. & John Finley Walk,40.7679217,-73.9494885,OK,"John Finley Walk, New York, NY, USA",route
236,UES Run Club,Manhattan,https://www.instagram.com/uesrunclub/,"Central Park - Engineer's Gate, 2 E 90th St, New York, NY 10128",40.784066,-73.9586941,OK,"2 E 90th St, New York, NY 10128, USA",establishment
237,Ukrainian Running Club,Manhattan,https://www.ukrainianrunningclub.com/,Columbus Circle - Merchant's Gate under Maine Monument (gold statue),40.7682489,-73.98101079999999,OK,"West Side at, Central Park S, New York, NY 10019, USA",establishment
238,Upper West Side Run Club,Manhattan,https://www.instagram.com/upperwestsiderunclub/?hl=en,Daniel Webster Monument in Central Park,40.7747558,-73.9742918,OK,"West Dr. &, Terrace Dr, New York, NY 10024, USA",establishment
239,Upper West Side Run Club,Manhattan,https://www.instagram.com/upperwestsiderunclub/?hl=en,Museum of Natural History on Central Park Wes,40.7813241,-73.9739882,OK,"200 Central Prk W, New York, NY 10024, USA",establishment
240,Upper West Side Run Club,Manhattan,https://www.instagram.com/upperwestsiderunclub/?hl=en,Meet at Eleanor Roosevelt Monument in Riverside Park,40.780642,-73.98579699999999,OK,"W 72nd St, New York, NY 10023, USA",establishment
241,We Are NYC Running Club,Manhattan,https://www.instagram.com/wearenycrc/,East River Track,40.7133434,-73.9757477,OK,"East River Park, East River Promenade, New York, NY 10002, USA",establishment
242,We Are NYC Running Club,Manhattan,https://www.instagram.com/wearenycrc/,"Central Park - Engineer's Gate, 2 E 90th St, New York, NY 10128",40.784066,-73.9586941,OK,"2 E 90th St, New York, NY 10128, USA",establishment
244,We Run Uptown (WRU),Manhattan,https://www.instagram.com/wrucrew/,"Locksmith Bar, 4463 Broadway, NY, NY",40.85734799999999,-73.9325554,OK,"4463 Broadway, New York, NY 10040, USA",bar
245,We Run Uptown (WRU),Manhattan,https://www.instagram.com/wrucrew/,"MRFU The Chophouse 5008 BROADWAY, NY, NY",40.8687133,-73.9174737,OK,"5008 Broadway, New York, NY 10034, USA",clothing_store
246,West Side YMCA Road Runners Club,Manhattan,https://www.strava.com/clubs/west-side-ymca-road-runners-club-221421,"West Side YMCA, 5 W 63rd St., New York, NY 10023",40.7708731,-73.9805895,OK,"5 W 63rd St., New York, NY 10023, USA",establishment
248,Achilles International NYC,Queens,https://www.instagram.com/achillesnyc/?hl=en,Flushing Meadows Corona Park - Hall of Science,40.7472583,-73.8516925,OK,"47-01 111th St, Corona, NY 11368, USA",establishment
249,Alley Pond Striders,Queens,https://www.alleypondstriders.com/,Parkhouse on Winchester Boulevard,37.2918923,-121.9498909,OK,"Winchester Blvd, California, USA",route
251,Astoria Mom Running Club (AMRC),Queens,https://www.instagram.com/astoriamomrc/,Astoria Park - Entrance to track,40.7785364,-73.92283359999999,OK,"Astoria Park, 19 19th St, Astoria, NY 11105, USA",establishment
252,Forest Park Runners,Queens,https://forestparkrunners.org/cs/forestparkrunners/page.detail?page_id=1,Forest Park - Victory Field,40.7022097,-73.8547222,OK,"Victory Field, Woodhaven, NY 11421, USA",establishment
253,Forest Park Runners,Queens,https://forestparkrunners.org/cs/forestparkrunners/page.detail?page_id=1,Forest Park - Woodhaven Blvd & Forest Park Drive,40.7006539,-73.8544794,OK,"Forest Park Dr & Woodhaven Blvd, Queens, NY 11421, USA",intersection
254,Great Hill Track Club,Queens,https://www.instagram.com/greathilltc/,Astoria Park - Astoria Park South and 18th Street,40.7785364,-73.92283359999999,OK,"Astoria Park, 19 19th St, Astoria, NY 11105, USA",establishment
255,Hellgate Road Runners,Queens,https://www.instagram.com/hellgaterr/,Astoria Park - Shore Blvd on bottom lawn,40.7785364,-73.92283359999999,OK,"Astoria Park, 19 19th St, Astoria, NY 11105, USA",establishment
257,Hellgate Road Runners,Queens,https://www.instagram.com/hellgaterr/,Astoria Park - Inside track at NW corner near skate park,40.7785364,-73.92283359999999,OK,"Astoria Park, 19 19th St, Astoria, NY 11105, USA",establishment
259,Hellgate Road Runners,Queens,https://www.instagram.com/hellgaterr/,Astoria Park - Front of Field House,40.7785364,-73.92283359999999,OK,"Astoria Park, 19 19th St, Astoria, NY 11105, USA",establishment
262,Lone Wolf Track Club,Queens,https://www.instagram.com/lonewolftc/?hl=en,Astoria Park - Front of Field House,40.7785364,-73.92283359999999,OK,"Astoria Park, 19 19th St, Astoria, NY 11105, USA",establishment
263,Long Island City Runners (LIC Runners),Queens,https://www.instagram.com/licrunners/,"LIC YMCA - 32-23 Queens Blvd, Long Island City, NY 11101",40.745115,-73.9322241,OK,"32-23 Queens Blvd, Long Island City, NY 11101, USA",establishment
264,Long Island City Runners (LIC Runners),Queens,https://www.instagram.com/licrunners/,Astoria Park - Front of Field House,40.7785364,-73.92283359999999,OK,"Astoria Park, 19 19th St, Astoria, NY 11105, USA",establishment
265,Queens Distance Runners,Queens,https://www.instagram.com/queensdistance/,"Jackson Heights - The Queensboro, 80-02 Northern Blvd, Queens, NY 11372",40.7552503,-73.8870804,OK,"80-02 Northern Blvd, Jackson Heights, NY 11372, USA",bar
266,Queens Distance Runners,Queens,https://www.instagram.com/queensdistance/,"Woodhaven - Neirs Tavern, 87-48 78th St, Queens, NY 11421",40.6898112,-73.8635147,OK,"87-48 78th St, Woodhaven, NY 11421, USA",bar
267,Queens Distance Runners,Queens,https://www.instagram.com/queensdistance/,"Astoria - Rivercrest Restaurant, 33-15 Ditmars Blvd, Queens, NY 11105",40.7751808,-73.9089998,OK,"33-15 Ditmars Blvd, Astoria, NY 11105, USA",bar
268,Queens Distance Runners,Queens,https://www.instagram.com/queensdistance/,Rego Park - 63rd Drive & 102nd Street,40.7324332,-73.8539074,OK,"102nd St & 63rd Dr, Queens, NY 11374, USA",intersection
269,Queens Distance Runners,Queens,https://www.instagram.com/queensdistance/,Forest Park - Victory Field Track,40.7022097,-73.8547222,OK,"Victory Field, Woodhaven, NY 11421, USA",establishment
271,Queens Distance Runners,Queens,https://www.instagram.com/queensdistance/,"St. John's Track, 8000 Utopia Parkway, Jamaica, NY 11439",40.7218122,-73.7951149,OK,"8000 Utopia Pkwy, Jamaica, NY 11439, USA",establishment
272,Queens Distance Runners,Queens,https://www.instagram.com/queensdistance/,Flushing - 32-02 Francis Lewis BLVD,40.7686939,-73.7920711,OK,"3202 Francis Lewis Blvd, Flushing, NY 11358, USA",premise
273,Queens Distance Runners,Queens,https://www.instagram.com/queensdistance/,"Glen Oaks - Ralph's, 264-21 Union Tpke, Queens, NY 11004",40.7492125,-73.7082147,OK,"264-21 Union Tpke, Glen Oaks, NY 11004, USA",premise
274,Queens Distance Runners,Queens,https://www.instagram.com/queensdistance/,"Forest Hills - Spencer Pilates, 108-12 72nd Ave, Queens, NY 11375",40.71962449999999,-73.842215,OK,"108-12 72nd Ave, Forest Hills, NY 11375, USA",establishment
275,Queens Don't Nok the Run,Queens,https://www.instagram.com/qns_dontnoktherun/,"Queen's College - Gino's of Kissena, 6501 Kissena Blvd # 3, Queens, NY 11367",40.73702,-73.8144107,OK,"6501 Kissena Blvd # 3, Kew Gardens Hills, NY 11367, USA",establishment
276,Queens Rebels Run Club,Queens,https://www.instagram.com/qrrc718/?hl=en,"Astoria - Rivercrest Restaurant, 33-15 Ditmars Blvd, Queens, NY 11105",40.7751808,-73.9089998,OK,"33-15 Ditmars Blvd, Astoria, NY 11105, USA",bar
277,Run Hustle Run,Queens,https://www.instagram.com/runhustlerun/,"Richmond Hill - Hustle Barber Shop, 135-22 Hillside Avenue, Richmond Hill, NY 11418",40.703746,-73.818632,OK,"135-22 Hillside Ave., Richmond Hill, NY 11418, USA",clothing_store
278,Run Hustle Run,Queens,https://www.instagram.com/runhustlerun/,Forest Park - Victory Field Track,40.7022097,-73.8547222,OK,"Victory Field, Woodhaven, NY 11421, USA",establishment
280,Run LIC,Queens,https://www.meetup.com/LongIslandCity-Runners/,LIC - Corner 46th Rd & 5th St Meet,40.7467323,-73.94760389999999,OK,"21-03 45th Rd, Long Island City, NY 11101, USA",cafe
281,Run LIC,Queens,https://www.meetup.com/LongIslandCity-Runners/,LIC Ferry Stop 46th Ave & Waterfront,40.7484086,-73.9577202,OK,"Long Island City, Center Blvd &, 46th Ave, New York, NY 10044, USA",establishment
283,Run LIC,Queens,https://www.meetup.com/LongIslandCity-Runners/,"LIC - John Murray Park, 45th Rd. and 11th St near the Citibikes",40.7469346,-73.9491757,OK,"45th Rd, Queens, NY 11101, USA",route
284,Team WEPA,Queens,https://www.instagram.com/team_wepa_nyc/,"Queens Bully, 113-30 Queens Boulevard",40.7170196,-73.83545869999999,OK,"113-30 Queens Blvd, Forest Hills, NY 11375, USA",bar
285,We Run Hollis,Queens,https://www.instagram.com/werunhollis/,"Hollis - Hollis Ave & 204th St, Hollis NY",40.7087985,-73.7463025,OK,"211-04 Hollis Ave, Queens Village, NY 11429, USA",establishment
286,Wolf Runners of Queens,Queens,https://www.instagram.com/wolf.runners.of_queens/,North Corona - Junction blvd 34th ave,40.7549927,-73.8726753,OK,"34th Ave & Junction Blvd, Queens, NY 11372, USA",intersection
287,Woodside-Sunnyside Runners,Queens,https://www.meetup.com/Woodside-Sunnyside-Runners/?_cookie-check=_rB-Q70x-pvBinUq,Woodside Ave & 54th Street,40.7474037,-73.9095597,OK,"54th St & Woodside Ave, Queens, NY 11377, USA",intersection
288,Woodside-Sunnyside Runners,Queens,https://www.meetup.com/Woodside-Sunnyside-Runners/?_cookie-check=_rB-Q70x-pvBinUq,Astoria Park - Front of Field House,40.7785364,-73.92283359999999,OK,"Astoria Park, 19 19th St, Astoria, NY 11105, USA",establishment
289,Woodside-Sunnyside Runners,Queens,https://www.meetup.com/Woodside-Sunnyside-Runners/?_cookie-check=_rB-Q70x-pvBinUq,Skillman Ave & 43rd Street,40.7468996,-73.9208014,OK,"43rd St & Skillman Ave, Queens, NY 11101, USA",intersection
291,World's Fair Run Crew (WFRC),Queens,https://www.instagram.com/worldsfairruncrew/,"Alumni, 135-18 Northern BLVD",40.7626517,-73.8325657,OK,"135-18 Northern Blvd, Flushing, NY 11354, USA",clothing_store
292,Richmond Rockets,Staten Island,https://www.therichmondrockets.com/,Clove Lakes Park,40.6186608,-74.11163979999999,OK,"Clove Lakes Park, 1150 Clove Rd, Staten Island, NY 10301, USA",establishment
293,Staten Island Athletic Club,Staten Island,https://www.instagram.com/staten_island_athletic_club/,Clove Lakes Park,40.6186608,-74.11163979999999,OK,"Clove Lakes Park, 1150 Clove Rd, Staten Island, NY 10301, USA",establishment
294,Staten Island Athletic Club,Staten Island,https://www.instagram.com/staten_island_athletic_club/,Silver Lake Park,48.9715717,-122.0691689,OK,"Silver Lake Park, 9006 Silver Lake Rd, Maple Falls, WA 98266, USA",campground
296,Staten Island Athletic Club,Staten Island,https://www.instagram.com/staten_island_athletic_club/,Greenbelt Nature Center,40.5884511,-74.13916669999999,OK,"Greenbelt Nature Center, 700 Rockland Ave, Staten Island, NY 10314, USA",establishment
300,Yonkers Running Project aka YRP,Yonkers,https://www.instagram.com/yonkersrunningproject/?hl=en,100 main st Yonkers NY 10591,40.9349187,-73.90413269999999,OK,"100 Main St, Yonkers, NY 10701, USA",street_address
